[{"OBJECT_NAME":"NAPA-2","OBJECT_ID":"2021-059CN","EPOCH":"2026-03-09T23:29:49.102656","MEAN_MOTION":15.70952391,"ECCENTRICITY":0.00036606,"INCLINATION":97.6849,"RA_OF_ASC_NODE":256.4978,"ARG_OF_PERICENTER":316.466,"MEAN_ANOMALY":43.6312,"EPHEMERIS_TYPE":0,"CLASSIFICATION_TYPE":"U","NORAD_CAT_ID":48963,"ELEMENT_SET_NO":999,"REV_AT_EPOCH":26212,"BSTAR":0.00074486022,"MEAN_MOTION_DOT":0.00093758,"MEAN_MOTION_DDOT":0},{"OBJECT_NAME":"STARLINK-11239 [DTC]","OBJECT_ID":"2024-155A","EPOCH":"2026-03-09T22:04:36.500160","MEAN_MOTION":15.69726405,"ECCENTRICITY":0.00012595,"INCLINATION":53.1592,"RA_OF_ASC_NODE":340.4798,"ARG_OF_PERICENTER":88.3557,"MEAN_ANOMALY":271.7605,"EPHEMERIS_TYPE":0,"CLASSIFICATION_TYPE":"U","NORAD_CAT_ID":60924,"ELEMENT_SET_NO":999,"REV_AT_EPOCH":8843,"BSTAR":-3.8765339e-5,"MEAN_MOTION_DOT":-5.286e-5,"MEAN_MOTION_DDOT":0}]
